#dP2022  6 10 18  0  0.00000000      96 __u+U ITR00 EXT  IAC
## 2213 496800.00000000   900.00000000 59740 0.7500000000000
+  115   C06C07C08C09C11C12C13C14C16C19C20C21C22C23C24C25C26
+        C27C28C29C30C32C33C34C35C36C37C38C39C40C41C42C43C44
+        C45C46E01E02E03E04E05E07E08E09E10E11E12E13E14E15E18
+        E19E21E24E25E26E27E30E31E33E34E36G01G02G03G04G05G06
+        G07G08G09G10G11G12G13G14G15G16G17G18G19G20G21G22G23
+        G24G25G26G27G28G29G30G31G32J02J03R01R02R03R04R05R07
+        R08R09R11R12R13R14R15R17R18R19R20R21R24  0  0  0  0
++         9 10  8  9  8  9  8  9 10  9  8  8  8  8  7  8  8
++         8  9  9  9  8  9  6  7  9  8  8  8  7  7  9  8  9
++         9  8  7  6  7  7  7  8  8  8  9  7  6  8  7  7  8
++         7  7  7  8  8  8  8  5  7  8  8  7  8  6  7  5  6
++         8  7  8  6  8  8  6  6  7  7  7  8  6 10  6  7  7
++         6  8  6  7  6  7  7  7  7  9  9  7  9  8  9  9  7
++         6  8  7  9  9  8  8  8  7  9  8  8  7  0  0  0  0
%c M  cc GPS ccc cccc cccc cccc cccc ccccc ccccc ccccc ccccc
%c cc cc ccc ccc cccc cccc cccc cccc ccccc ccccc ccccc ccccc
%f  0.0000000  0.000000000  0.00000000000  0.000000000000000
%f  0.0000000  0.000000000  0.00000000000  0.000000000000000
%i    0    0    0    0      0      0      0      0         0
%i    0    0    0    0      0      0      0      0         0
/* IAC                                ULTRA-RAPID PREDICTION
/* S/V CLOCKS ARE ALIGNED TO GNSS TIME                      
/* G:C1WC2W R:C1PC2P E:C1XC5X C:C2IC6I J:C1CC2S             
/* PCV:IGS14_2196 OL/AL:FES2004  NONE     YN ORB:CoN CLK:CoN
*  2022 06 11  5 15  0.00000000
PC06  -5346.354177  24181.745112 -34099.582901    165.486248
PC07 -16235.128172  36157.491852  14165.609916   -283.610894
PC08  -1476.354800  37954.659586  18468.056756    356.796071
PC09   1763.447274  25768.318019 -32862.001195   -872.153782
PC11  27202.786929   4975.791821  -3809.951564    407.253492
PC12  19946.925852  14353.598669  13263.850886   -600.712116
PC13   2675.132214  40233.428591  12902.383263     -7.282140
PC14  21064.827980  -4270.592242 -17809.357938    499.398999
PC16  -9580.481187  22195.372305 -34377.533135    138.659389
PC19 -22360.062320  12920.773246  10570.640564    859.537135
PC20 -17230.034776  -3498.042687  21678.974950   -953.957251
PC21   1376.501674  18886.812947 -20468.183881   -462.287491
PC22 -14769.050169  22539.994857  -7181.253834   -965.057342
PC23   5451.108353 -22344.790338  15813.466321   -933.478484
PC24  16385.346805  16216.516122  15735.603592   -971.225405
PC25  15191.984917  -5841.837156  22662.742510   -723.630090
PC26   8985.344717  26419.857015   1007.104789    725.116256
PC27 -11616.139940 -16723.695426 -19113.322632    737.128519
PC28   8769.871791 -13868.074736 -22575.870367     77.167338
PC29 -24673.704207   3484.678563  12552.488502    566.767588
PC30 -25737.649317  -9447.577930  -5275.675775    499.708736
PC32  -1472.232405 -18946.349753  20458.919698   -967.598594
PC33  22302.072433 -13031.324786 -10583.297848   -969.027131
PC34  26101.357229   8870.753443   4241.659373   -383.499805
PC35  -9521.999921  13804.030099  22296.147010    315.265883
PC36 -15487.670656   4904.554094 -22662.165496   -967.439597
PC37  -7602.066356 -26840.067371    146.698214   -909.011449
PC38  -7172.681566  34031.312624  23968.654983      2.296441
PC39 -15226.184461  20456.524129 -33579.347362     34.961156
PC40 -24109.526821  32194.130350  12348.947259    276.435833
PC41  14991.367946 -22558.976889   6783.578077   -969.825198
PC42  16638.485974   4439.936034 -21917.821721   -961.908955
PC43  25028.762284  -3002.049182 -11961.681611   -918.890153
PC44  11947.149243  16414.388124  19115.487845    688.536315
PC45  -5133.224688  22538.863881 -15640.348686    780.378422
PC46 -16643.278646 -14717.342104 -16859.465810   -372.752703
PE01  12838.615018  13402.953496  23061.104388   -493.896901
PE02 -12926.237591 -13209.855052 -23118.361218    304.920554
PE03 -22759.101368  -6382.122140  17811.963124   -567.592782
PE04  28607.444890  -7497.682297  -1300.566884  -1047.468683
PE05  -3409.918289 -16773.141358  24157.840669   -173.253334
PE07 -17624.248917  17246.263924 -16354.205057   -677.278931
PE08 -28542.943055   7732.816342   1105.568203   -544.572005
PE09  17548.454542 -17239.479015  16483.864715   -549.374799
PE10  15056.951304  -7464.297404 -24381.364396   -518.925016
PE11   6088.821373 -15897.038897 -24234.238817   3388.276459
PE12  21212.153524   1624.048418 -20581.929882     -4.859578
PE13  -6675.155389  15336.809492  24416.035340    429.221031
PE14 -24128.268679   4492.278254   2019.727116  -1811.301199
PE15 -21260.377355  -1788.288287  20519.057006    740.130784
PE18  25614.597525 -13769.286318 -13434.003628  -1343.438702
PE19  20891.742656   7960.493566 -19388.044658  -5407.723566
PE21   1498.359053  27194.978620  11592.120405   -739.474959
PE24  12185.869734 -25658.301618   8280.682216   -664.261090
PE25  -1298.376414 -27305.204637 -11344.729963   -577.160574
PE26  12378.540940  23478.884948  13098.223893  -1248.971384
PE27 -11467.989152  26315.000247  -7235.055629   -319.409150
PE30 -17697.815368   8838.036489 -22030.582643   -583.075229
PE31  17575.952311  -9947.710141  21648.453617   -498.083356
PE33  23231.062415  17762.412096  -4551.577446   -455.753726
PE34 -23308.341584 -17617.437413   4718.072985   -521.567154
PE36 -11718.238497 -23335.047758 -13954.438185   -386.440183
PG01 -20255.462357 -11283.775795  12966.775979    343.775906
PG02  13612.479641  21553.699411   7808.774705   -652.783044
PG03 -14986.951006  -1932.707448  21719.313565   -274.783214
PG04 -25315.209689  -2010.417451   7941.064324   -158.295936
PG05   8443.564437  16855.435449 -18818.914638    -85.103288
PG06    629.493968  19453.565619  18096.022621    338.879308
PG07 -15570.823357   4426.910775 -20730.768485    321.899243
PG08 -20915.208526  -6640.124191 -15253.465770    -71.666021
PG09 -25669.799063   6575.438579  -2086.770935   -329.398953
PG10  11483.190352 -23363.482571  -4248.575683   -450.247184
PG11  11472.910144  23016.127763   6674.036601    -15.968622
PG12  13229.314772   6906.352998  21707.557427   -229.311425
PG13  12123.181703  13166.039169 -19834.637507    327.810872
PG14 -13245.711845  22309.944153  -5440.480480   -111.256937
PG15  21926.413894   4739.871665 -14868.455637    -54.167034
PG16  -2711.181940 -20726.896948 -16380.655624   -508.073213
PG17 -15742.660866  13398.479610  17135.327873    623.592024
PG18  15321.441848  -4186.738682 -21317.386688    145.484347
PG19  -7472.079495  14486.761912  20662.571270    169.145996
PG20   2480.584666  24677.609014  -9808.762465    512.401029
PG21 -20864.667157 -16567.540198   4584.845836    161.309277
PG22   4063.786848 -15508.540475  21568.932998    273.848169
PG23  15545.421554 -16275.176613 -14029.599894    -27.345800
PG24  21668.334183  13008.075089   8517.381746    223.300916
PG25  16758.724549  -8858.749137  18204.493931    335.917794
PG26   2902.507428 -25510.083324  -6221.495618    211.588316
PG27  -8794.391360 -13333.596682 -21498.447410    214.354548
PG28  -8562.511404  24993.735575   4263.679821    340.509853
PG29  26117.461694  -4361.302935  -2582.589559   -522.861914
PG30  -8244.850765  14142.526485 -20789.887606   -531.009082
PG31  -2158.550392 -20791.410191  15978.105814   -181.323562
PG32  12612.297180 -15124.836149  17879.212332   -148.349016
PJ02 -22855.232332  31278.560576 -11923.175711     -0.599028
PJ03 -26824.112830  23358.255442  27792.397285     -2.771923
PR01  20737.564777  -8115.240300 -12450.611457      9.781625
PR02  17980.287134 -16674.912638   6957.789328    520.966182
PR03   4152.030467 -14842.073716  20356.851070     58.229702
PR04 -11508.501703  -4634.164074  22320.120650    145.887157
PR05 -21061.439169   7974.907760  12013.361073     94.417619
PR07  -3599.905145  14567.507265 -20597.958636     36.266984
PR08  11675.505774   4560.832115 -22151.290549    -65.619462
PR09  -5564.543765  19182.851368 -15799.071119     59.861791
PR11   9536.383914  17622.197927  15787.652740     36.566471
PR12  10912.187383  -1489.305967  23035.526896     18.814636
PR13   6018.833947 -18189.338412  16829.574307    -23.459400
PR14  -2903.967438 -25350.882232   -348.053750     25.292045
PR15  -9621.998109 -17034.257314 -16349.820273     95.483720
PR17  -7894.776427 -13651.909190 -20035.440288    533.895733
PR18 -20799.332432 -13146.075935  -6818.516224    119.895011
PR19 -22836.951255  -7056.438414   8895.896026   -192.274224
PR20 -10754.093869   5711.341880  22420.612509    -72.403909
PR21   9369.642808  13916.589108  19216.700537   -308.477260
PR24  10136.852252  -6805.069731 -22389.622431     98.124051
EOF
